[{"OBJECT_NAME":"STARLINK-30282","OBJECT_ID":"2023-144V","EPOCH":"2026-03-09T01:02:17.581056","MEAN_MOTION":15.26729095,"ECCENTRICITY":0.00013584,"INCLINATION":43.001,"RA_OF_ASC_NODE":288.4148,"ARG_OF_PERICENTER":272.5421,"MEAN_ANOMALY":87.5275,"EPHEMERIS_TYPE":0,"CLASSIFICATION_TYPE":"U","NORAD_CAT_ID":57883,"ELEMENT_SET_NO":999,"REV_AT_EPOCH":13754,"BSTAR":0.00041723449,"MEAN_MOTION_DOT":0.00010945,"MEAN_MOTION_DDOT":0},{"OBJECT_NAME":"FLOCK 4G-31","OBJECT_ID":"2025-009AV","EPOCH":"2026-03-09T17:55:44.365728","MEAN_MOTION":15.26963037,"ECCENTRICITY":5.975e-5,"INCLINATION":97.4007,"RA_OF_ASC_NODE":151.027,"ARG_OF_PERICENTER":42.5998,"MEAN_ANOMALY":317.5288,"EPHEMERIS_TYPE":0,"CLASSIFICATION_TYPE":"U","NORAD_CAT_ID":62652,"ELEMENT_SET_NO":999,"REV_AT_EPOCH":6372,"BSTAR":0.00048078603,"MEAN_MOTION_DOT":0.00012662,"MEAN_MOTION_DDOT":0}]
